{
  "norad_id": 67448,
  "name": "STARLINK-36423",
  "history": [
    {
      "epoch": "2026-03-28T11:02:37.523328Z",
      "apogee_km": 484.1598742811684,
      "perigee_km": 481.8391634650243,
      "latitude_deg": -9.420427339519688e-07,
      "longitude_deg": 107.62326507818922,
      "height_km": 482.72160842109724,
      "semi_major_axis_km": 6861.136518873096,
      "eccentricity": 0.00016912,
      "inclination_deg": 43.0002,
      "raan_deg": 99.1599,
      "arg_perigee_deg": 272.7106,
      "mean_anomaly_deg": 87.3552,
      "mean_motion_rev_day": 15.27596557
    }
  ]
}