{"fetched_at":"2026-03-29T02:12:04Z","count":15717,"tles":[{"name":"STARLINK-36423","line1":"1 67448U 26008D   26087.46015652  .00033049  00000+0  12045-2 0  9999","line2":"2 67448  43.0002  99.1599 0001691 272.7106  87.3552 15.27596557 12447","category":"Starlink"}]}